CTC1_L_00399016-03
1 50224U 22630MY  26070.40835648  .00000000  00000+0  00000-0 0  9998
2 50224  55.0000 180.0000 0000000   0.0000   0.0000 12.90384021    15
CTC1_L_00399016-04
1 50225U 25534GK  26070.40835648  .00000000  00000+0  00000-0 0  9995
2 50225  55.0000 180.0000 0000000   0.0000  90.0000 12.90384021    15
CTC1_L_00399017-01
1 50226U 25545SD  26070.40835648  .00000000  00000+0  00000-0 0  9998
2 50226  55.0000 192.0000 0000000   0.0000 192.0000 12.90384021    12
CTC1_L_00399017-02
1 50227U 22696KX  26070.40835648  .00000000  00000+0  00000-0 0  9993
2 50227  55.0000 192.0000 0000000   0.0000 282.0000 12.90384021    13
CTC1_L_00399017-03
1 50228U 22718IJ  26070.40835648  .00000000  00000+0  00000-0 0  9999
2 50228  55.0000 192.0000 0000000   0.0000  12.0000 12.90384021    15
CTC1_L_00399017-04
1 50229U 23314XJ  26070.40835648  .00000000  00000+0  00000-0 0  9993
2 50229  55.0000 192.0000 0000000   0.0000 102.0000 12.90384021    16
CTC1_L_00399018-01
1 50230U 25216PC  26070.40835648  .00000000  00000+0  00000-0 0  9998
2 50230  55.0000 204.0000 0000000   0.0000 204.0000 12.90384021    15
CTC1_L_00399018-02
1 50231U 23558GC  26070.40835648  .00000000  00000+0  00000-0 0  9996
2 50231  55.0000 204.0000 0000000   0.0000 294.0000 12.90384021    15
CTC1_L_00399018-03
1 50232U 23372VV  26070.40835648  .00000000  00000+0  00000-0 0  9991
2 50232  55.0000 204.0000 0000000   0.0000  24.0000 12.90384021    17
CTC1_L_00399018-04
1 50233U 26975OM  26070.40835648  .00000000  00000+0  00000-0 0  9994
2 50233  55.0000 204.0000 0000000   0.0000 114.0000 12.90384021    18
CTC1_L_00399019-01
1 50234U 25635JE  26070.40835648  .00000000  00000+0  00000-0 0  9997
2 50234  55.0000 216.0000 0000000   0.0000 216.0000 12.90384021    15
CTC1_L_00399019-02
1 50235U 26455FA  26070.40835648  .00000000  00000+0  00000-0 0  9999
2 50235  55.0000 216.0000 0000000   0.0000 306.0000 12.90384021    16
CTC1_L_00399019-03
1 50236U 22284IS  26070.40835648  .00000000  00000+0  00000-0 0  9996
2 50236  55.0000 216.0000 0000000   0.0000  36.0000 12.90384021    17
CTC1_L_00399019-04
1 50237U 22282QU  26070.40835648  .00000000  00000+0  00000-0 0  9995
2 50237  55.0000 216.0000 0000000   0.0000 126.0000 12.90384021    18
CTC1_L_00399020-01
1 50238U 25573VR  26070.40835648  .00000000  00000+0  00000-0 0  9992
2 50238  55.0000 228.0000 0000000   0.0000 228.0000 12.90384021    15
CTC1_L_00399020-02
1 50239U 22534TS  26070.40835648  .00000000  00000+0  00000-0 0  9997
2 50239  55.0000 228.0000 0000000   0.0000 318.0000 12.90384021    16
CTC1_L_00399020-03
1 50240U 25467BI  26070.40835648  .00000000  00000+0  00000-0 0  9997
2 50240  55.0000 228.0000 0000000   0.0000  48.0000 12.90384021    18
CTC1_L_00399020-04
1 50241U 26095PF  26070.40835648  .00000000  00000+0  00000-0 0  9996
2 50241  55.0000 228.0000 0000000   0.0000 138.0000 12.90384021    19
CTC1_L_00399021-01
1 50242U 26964IW  26070.40835648  .00000000  00000+0  00000-0 0  9992
2 50242  55.0000 240.0000 0000000   0.0000 240.0000 12.90384021    18
CTC1_L_00399021-02
1 50243U 22613YW  26070.40835648  .00000000  00000+0  00000-0 0  9990
2 50243  55.0000 240.0000 0000000   0.0000 330.0000 12.90384021    19
CTC1_L_00399021-03
1 50244U 24091JN  26070.40835648  .00000000  00000+0  00000-0 0  9993
2 50244  55.0000 240.0000 0000000   0.0000  60.0000 12.90384021    10
CTC1_L_00399021-04
1 50245U 26224QH  26070.40835648  .00000000  00000+0  00000-0 0  9994
2 50245  55.0000 240.0000 0000000   0.0000 150.0000 12.90384021    11
CTC1_L_00399022-01
1 50246U 24960RQ  26070.40835648  .00000000  00000+0  00000-0 0  9990
2 50246  55.0000 252.0000 0000000   0.0000 252.0000 12.90384021    18
CTC1_L_00399022-02
1 50247U 25895RE  26070.40835648  .00000000  00000+0  00000-0 0  9999
2 50247  55.0000 252.0000 0000000   0.0000 342.0000 12.90384021    19
CTC1_L_00399022-03
1 50248U 26500LD  26070.40835648  .00000000  00000+0  00000-0 0  9994
2 50248  55.0000 252.0000 0000000   0.0000  72.0000 12.90384021    10
CTC1_L_00399022-04
1 50249U 26580MA  26070.40835648  .00000000  00000+0  00000-0 0  9993
2 50249  55.0000 252.0000 0000000   0.0000 162.0000 12.90384021    11
CTC1_L_00399023-01
1 50250U 22139CT  26070.40835648  .00000000  00000+0  00000-0 0  9991
2 50250  55.0000 264.0000 0000000   0.0000 264.0000 12.90384021    19
CTC1_L_00399023-02
1 50251U 25378EE  26070.40835648  .00000000  00000+0  00000-0 0  9990
2 50251  55.0000 264.0000 0000000   0.0000 354.0000 12.90384021    10
CTC1_L_00399023-03
1 50252U 23045US  26070.40835648  .00000000  00000+0  00000-0 0  9990
2 50252  55.0000 264.0000 0000000   0.0000  84.0000 12.90384021    11
CTC1_L_00399023-04
1 50253U 24602XR  26070.40835648  .00000000  00000+0  00000-0 0  9991
2 50253  55.0000 264.0000 0000000   0.0000 174.0000 12.90384021    12
CTC1_L_00399024-01
1 50254U 23042EY  26070.40835648  .00000000  00000+0  00000-0 0  9999
2 50254  55.0000 276.0000 0000000   0.0000 276.0000 12.90384021    19
CTC1_L_00399024-02
1 50255U 23115JR  26070.40835648  .00000000  00000+0  00000-0 0  9991
2 50255  55.0000 276.0000 0000000   0.0000   6.0000 12.90384021    11
CTC1_L_00399024-03
1 50256U 26204RM  26070.40835648  .00000000  00000+0  00000-0 0  9994
2 50256  55.0000 276.0000 0000000   0.0000  96.0000 12.90384021    11
CTC1_L_00399024-04
1 50257U 25584LD  26070.40835648  .00000000  00000+0  00000-0 0  9995
2 50257  55.0000 276.0000 0000000   0.0000 186.0000 12.90384021    12
CTC1_L_00399025-01
1 50258U 24851IT  26070.40835648  .00000000  00000+0  00000-0 0  9992
2 50258  55.0000 288.0000 0000000   0.0000 288.0000 12.90384021    19
CTC1_L_00399025-02
1 50259U 26583IP  26070.40835648  .00000000  00000+0  00000-0 0  9997
2 50259  55.0000 288.0000 0000000   0.0000  18.0000 12.90384021    11
CTC1_L_00399025-03
1 50260U 25148XX  26070.40835648  .00000000  00000+0  00000-0 0  9995
2 50260  55.0000 288.0000 0000000   0.0000 108.0000 12.90384021    13
CTC1_L_00399025-04
1 50261U 26494ZX  26070.40835648  .00000000  00000+0  00000-0 0  9991
2 50261  55.0000 288.0000 0000000   0.0000 198.0000 12.90384021    13
CTC1_L_00399026-01
1 50262U 25750WF  26070.40835648  .00000000  00000+0  00000-0 0  9996
2 50262  55.0000 300.0000 0000000   0.0000 300.0000 12.90384021    14
CTC1_L_00399026-02
1 50263U 22666AY  26070.40835648  .00000000  00000+0  00000-0 0  9990
2 50263  55.0000 300.0000 0000000   0.0000  30.0000 12.90384021    15
CTC1_L_00399026-03
1 50264U 22945KY  26070.40835648  .00000000  00000+0  00000-0 0  9991
2 50264  55.0000 300.0000 0000000   0.0000 120.0000 12.90384021    16
CTC1_L_00399026-04
1 50265U 25696XD  26070.40835648  .00000000  00000+0  00000-0 0  9998
2 50265  55.0000 300.0000 0000000   0.0000 210.0000 12.90384021    17
CTC1_L_00399027-01
1 50266U 24311SY  26070.40835648  .00000000  00000+0  00000-0 0  9992
2 50266  55.0000 312.0000 0000000   0.0000 312.0000 12.90384021    14
CTC1_L_00399027-02
1 50267U 22643OF  26070.40835648  .00000000  00000+0  00000-0 0  9999
2 50267  55.0000 312.0000 0000000   0.0000  42.0000 12.90384021    15
CTC1_L_00399027-03
1 50268U 26209JN  26070.40835648  .00000000  00000+0  00000-0 0  9992
2 50268  55.0000 312.0000 0000000   0.0000 132.0000 12.90384021    16
CTC1_L_00399027-04
1 50269U 23132HQ  26070.40835648  .00000000  00000+0  00000-0 0  9995
2 50269  55.0000 312.0000 0000000   0.0000 222.0000 12.90384021    17
CTC1_L_00399028-01
1 50270U 23405HV  26070.40835648  .00000000  00000+0  00000-0 0  9990
2 50270  55.0000 324.0000 0000000   0.0000 324.0000 12.90384021    15
CTC1_L_00399028-02
1 50271U 23821NH  26070.40835648  .00000000  00000+0  00000-0 0  9993
2 50271  55.0000 324.0000 0000000   0.0000  54.0000 12.90384021    16
CTC1_L_00399028-03
1 50272U 22928OY  26070.40835648  .00000000  00000+0  00000-0 0  9991
2 50272  55.0000 324.0000 0000000   0.0000 144.0000 12.90384021    17
CTC1_L_00399028-04
1 50273U 23859IG  26070.40835648  .00000000  00000+0  00000-0 0  9996
2 50273  55.0000 324.0000 0000000   0.0000 234.0000 12.90384021    18
CTC1_L_00399029-01
1 50274U 25525HX  26070.40835648  .00000000  00000+0  00000-0 0  9999
2 50274  55.0000 336.0000 0000000   0.0000 336.0000 12.90384021    15
CTC1_L_00399029-02
1 50275U 23392FL  26070.40835648  .00000000  00000+0  00000-0 0  9990
2 50275  55.0000 336.0000 0000000   0.0000  66.0000 12.90384021    16
CTC1_L_00399029-03
1 50276U 26440NP  26070.40835648  .00000000  00000+0  00000-0 0  9998
2 50276  55.0000 336.0000 0000000   0.0000 156.0000 12.90384021    17
CTC1_L_00399029-04
1 50277U 23139FF  26070.40835648  .00000000  00000+0  00000-0 0  9991
2 50277  55.0000 336.0000 0000000   0.0000 246.0000 12.90384021    18
CTC1_L_00399030-01
1 50278U 23343KM  26070.40835648  .00000000  00000+0  00000-0 0  9999
2 50278  55.0000 348.0000 0000000   0.0000 348.0000 12.90384021    15
CTC1_L_00399030-02
1 50279U 26683ZG  26070.40835648  .00000000  00000+0  00000-0 0  9990
2 50279  55.0000 348.0000 0000000   0.0000  78.0000 12.90384021    16
CTC1_L_00399030-03
1 50280U 26910VB  26070.40835648  .00000000  00000+0  00000-0 0  9995
2 50280  55.0000 348.0000 0000000   0.0000 168.0000 12.90384021    18
CTC1_L_00399030-04
1 50281U 23542AR  26070.40835648  .00000000  00000+0  00000-0 0  9994
2 50281  55.0000 348.0000 0000000   0.0000 258.0000 12.90384021    19
